{"type": "FeatureCollection", "features": [{"type": "Feature", "properties": {"norad_id": 32275, "name": "COSMOS 2433 (720)", "group": "glo-ops", "lat": 57.471824262618526, "lon": 7.54351355639198, "alt_km": 19137.363097901874, "timestamp": "2025-12-06T14:35:37.386823+00:00", "meta": {"OBJECT_NAME": "COSMOS 2433 (720)", "OBJECT_ID": "2007-052A", "EPOCH": "2025-12-05T02:41:16.127808", "MEAN_MOTION": 2.1310391, "ECCENTRICITY": 0.00054971, "INCLINATION": 65.6874, "RA_OF_ASC_NODE": 322.462, "ARG_OF_PERICENTER": 253.0747, "MEAN_ANOMALY": 106.8638, "EPHEMERIS_TYPE": 0, "CLASSIFICATION_TYPE": "U", "NORAD_CAT_ID": 32275, "ELEMENT_SET_NO": 999, "REV_AT_EPOCH": 14092, "BSTAR": 0, "MEAN_MOTION_DOT": -4.7e-07, "MEAN_MOTION_DDOT": 0}, "tle": {"line1": "1 32275U 07052A   25339.11199222 -.00000047  00000+0  00000+0 0  9992", "line2": "2 32275  65.6874 322.4620 0005497 253.0747 106.8638  2.13103910140927"}}, "geometry": {"type": "Point", "coordinates": [7.54351355639198, 57.471824262618526]}}, {"type": "Feature", "properties": {"norad_id": 32276, "name": "COSMOS 2432 (719)", "group": "glo-ops", "lat": 11.179541563473123, "lon": -32.35325762714116, "alt_km": 19114.82245808905, "timestamp": "2025-12-06T14:35:37.386847+00:00", "meta": {"OBJECT_NAME": "COSMOS 2432 (719)", "OBJECT_ID": "2007-052B", "EPOCH": "2025-12-04T17:08:15.006912", "MEAN_MOTION": 2.13103047, "ECCENTRICITY": 0.00112577, "INCLINATION": 65.7035, "RA_OF_ASC_NODE": 322.5994, "ARG_OF_PERICENTER": 311.684, "MEAN_ANOMALY": 47.4656, "EPHEMERIS_TYPE": 0, "CLASSIFICATION_TYPE": "U", "NORAD_CAT_ID": 32276, "ELEMENT_SET_NO": 999, "REV_AT_EPOCH": 14093, "BSTAR": 0, "MEAN_MOTION_DOT": -4.6e-07, "MEAN_MOTION_DDOT": 0}, "tle": {"line1": "1 32276U 07052B   25338.71406258 -.00000046  00000+0  00000+0 0  9997", "line2": "2 32276  65.7035 322.5994 0011257 311.6840  47.4656  2.13103047140931"}}, "geometry": {"type": "Point", "coordinates": [-32.35325762714116, 11.179541563473123]}}, {"type": "Feature", "properties": {"norad_id": 32393, "name": "COSMOS 2434 (721)", "group": "glo-ops", "lat": -36.90325263948075, "lon": 177.2280786557502, "alt_km": 19139.030381810586, "timestamp": "2025-12-06T14:35:37.386862+00:00", "meta": {"OBJECT_NAME": "COSMOS 2434 (721)", "OBJECT_ID": "2007-065A", "EPOCH": "2025-12-05T10:54:52.087392", "MEAN_MOTION": 2.1310119, "ECCENTRICITY": 0.00044378, "INCLINATION": 64.3147, "RA_OF_ASC_NODE": 198.4493, "ARG_OF_PERICENTER": 70.9033, "MEAN_ANOMALY": 82.6626, "EPHEMERIS_TYPE": 0, "CLASSIFICATION_TYPE": "U", "NORAD_CAT_ID": 32393, "ELEMENT_SET_NO": 999, "REV_AT_EPOCH": 13964, "BSTAR": 0, "MEAN_MOTION_DOT": 8.7e-07, "MEAN_MOTION_DDOT": 0}, "tle": {"line1": "1 32393U 07065A   25339.45476953  .00000087  00000+0  00000+0 0  9996", "line2": "2 32393  64.3147 198.4493 0004437  70.9033  82.6626  2.13101190139646"}}, "geometry": {"type": "Point", "coordinates": [177.2280786557502, -36.90325263948075]}}, {"type": "Feature", "properties": {"norad_id": 32395, "name": "COSMOS 2436 (723)", "group": "glo-ops", "lat": 64.26259584983467, "lon": -67.85978775805289, "alt_km": 19117.100563054082, "timestamp": "2025-12-06T14:35:37.386876+00:00", "meta": {"OBJECT_NAME": "COSMOS 2436 (723)", "OBJECT_ID": "2007-065C", "EPOCH": "2025-12-06T06:08:25.321632", "MEAN_MOTION": 2.13099991, "ECCENTRICITY": 0.00177355, "INCLINATION": 64.3235, "RA_OF_ASC_NODE": 198.4925, "ARG_OF_PERICENTER": 9.0742, "MEAN_ANOMALY": 172.1556, "EPHEMERIS_TYPE": 0, "CLASSIFICATION_TYPE": "U", "NORAD_CAT_ID": 32395, "ELEMENT_SET_NO": 999, "REV_AT_EPOCH": 13961, "BSTAR": 0, "MEAN_MOTION_DOT": 7.5e-07, "MEAN_MOTION_DDOT": 0}, "tle": {"line1": "1 32395U 07065C   25340.25584863  .00000075  00000+0  00000+0 0  9995", "line2": "2 32395  64.3235 198.4925 0017735   9.0742 172.1556  2.13099991139610"}}, "geometry": {"type": "Point", "coordinates": [-67.85978775805289, 64.26259584983467]}}, {"type": "Feature", "properties": {"norad_id": 36111, "name": "COSMOS 2456 (730)", "group": "glo-ops", "lat": 54.89239510819893, "lon": -144.18391426134747, "alt_km": 19130.760677511676, "timestamp": "2025-12-06T14:35:37.386888+00:00", "meta": {"OBJECT_NAME": "COSMOS 2456 (730)", "OBJECT_ID": "2009-070A", "EPOCH": "2025-12-02T04:31:21.819072", "MEAN_MOTION": 2.13103415, "ECCENTRICITY": 0.0002798, "INCLINATION": 64.8943, "RA_OF_ASC_NODE": 77.6987, "ARG_OF_PERICENTER": 298.3251, "MEAN_ANOMALY": 26.4531, "EPHEMERIS_TYPE": 0, "CLASSIFICATION_TYPE": "U", "NORAD_CAT_ID": 36111, "ELEMENT_SET_NO": 999, "REV_AT_EPOCH": 12422, "BSTAR": 0, "MEAN_MOTION_DOT": -2.2e-07, "MEAN_MOTION_DDOT": 0}, "tle": {"line1": "1 36111U 09070A   25336.18844698 -.00000022  00000+0  00000+0 0  9998", "line2": "2 36111  64.8943  77.6987 0002798 298.3251  26.4531  2.13103415124220"}}, "geometry": {"type": "Point", "coordinates": [-144.18391426134747, 54.89239510819893]}}, {"type": "Feature", "properties": {"norad_id": 36112, "name": "COSMOS 2457 (733)", "group": "glo-ops", "lat": -54.93853167331366, "lon": -60.73861021771828, "alt_km": 19135.622340594557, "timestamp": "2025-12-06T14:35:37.386900+00:00", "meta": {"OBJECT_NAME": "COSMOS 2457 (733)", "OBJECT_ID": "2009-070B", "EPOCH": "2025-12-04T10:10:53.328576", "MEAN_MOTION": 2.13100784, "ECCENTRICITY": 0.00048679, "INCLINATION": 64.8808, "RA_OF_ASC_NODE": 77.4701, "ARG_OF_PERICENTER": 156.7423, "MEAN_ANOMALY": 212.4815, "EPHEMERIS_TYPE": 0, "CLASSIFICATION_TYPE": "U", "NORAD_CAT_ID": 36112, "ELEMENT_SET_NO": 999, "REV_AT_EPOCH": 12428, "BSTAR": 0, "MEAN_MOTION_DOT": -2.6e-07, "MEAN_MOTION_DDOT": 0}, "tle": {"line1": "1 36112U 09070B   25338.42422834 -.00000026  00000+0  00000+0 0  9996", "line2": "2 36112  64.8808  77.4701 0004867 156.7423 212.4815  2.13100784124284"}}, "geometry": {"type": "Point", "coordinates": [-60.73861021771828, -54.93853167331366]}}, {"type": "Feature", "properties": {"norad_id": 36402, "name": "COSMOS 2460 (732)", "group": "glo-ops", "lat": -54.885226987114834, "lon": -178.68007294224833, "alt_km": 19129.53519976679, "timestamp": "2025-12-06T14:35:37.386912+00:00", "meta": {"OBJECT_NAME": "COSMOS 2460 (732)", "OBJECT_ID": "2010-007C", "EPOCH": "2025-12-05T09:49:39.891072", "MEAN_MOTION": 2.13106027, "ECCENTRICITY": 0.00027397, "INCLINATION": 65.5337, "RA_OF_ASC_NODE": 321.021, "ARG_OF_PERICENTER": 272.5603, "MEAN_ANOMALY": 131.8824, "EPHEMERIS_TYPE": 0, "CLASSIFICATION_TYPE": "U", "NORAD_CAT_ID": 36402, "ELEMENT_SET_NO": 999, "REV_AT_EPOCH": 12260, "BSTAR": 0, "MEAN_MOTION_DOT": -4.8e-07, "MEAN_MOTION_DDOT": 0}, "tle": {"line1": "1 36402U 10007C   25339.40948948 -.00000048  00000+0  00000+0 0  9992", "line2": "2 36402  65.5337 321.0210 0002739 272.5603 131.8824  2.13106027122601"}}, "geometry": {"type": "Point", "coordinates": [-178.68007294224833, -54.885226987114834]}}, {"type": "Feature", "properties": {"norad_id": 37867, "name": "COSMOS 2476 (744)", "group": "glo-ops", "lat": 21.573735040060978, "lon": 89.92010419677644, "alt_km": 19180.832017117766, "timestamp": "2025-12-06T14:35:37.386923+00:00", "meta": {"OBJECT_NAME": "COSMOS 2476 (744)", "OBJECT_ID": "2011-064A", "EPOCH": "2025-12-02T19:57:36.313920", "MEAN_MOTION": 2.13101261, "ECCENTRICITY": 0.00239603, "INCLINATION": 65.1573, "RA_OF_ASC_NODE": 79.5068, "ARG_OF_PERICENTER": 233.4935, "MEAN_ANOMALY": 133.1658, "EPHEMERIS_TYPE": 0, "CLASSIFICATION_TYPE": "U", "NORAD_CAT_ID": 37867, "ELEMENT_SET_NO": 999, "REV_AT_EPOCH": 10958, "BSTAR": 0, "MEAN_MOTION_DOT": -2.2e-07, "MEAN_MOTION_DDOT": 0}, "tle": {"line1": "1 37867U 11064A   25336.83167030 -.00000022  00000+0  00000+0 0  9993", "line2": "2 37867  65.1573  79.5068 0023960 233.4935 133.1658  2.13101261109581"}}, "geometry": {"type": "Point", "coordinates": [89.92010419677644, 21.573735040060978]}}, {"type": "Feature", "properties": {"norad_id": 37868, "name": "COSMOS 2477 (745)", "group": "glo-ops", "lat": -22.204075933276325, "lon": -89.66104689357984, "alt_km": 19086.315212761558, "timestamp": "2025-12-06T14:35:37.386935+00:00", "meta": {"OBJECT_NAME": "COSMOS 2477 (745)", "OBJECT_ID": "2011-064B", "EPOCH": "2025-12-01T05:34:43.743072", "MEAN_MOTION": 2.1310269, "ECCENTRICITY": 0.00209845, "INCLINATION": 65.1625, "RA_OF_ASC_NODE": 79.6383, "ARG_OF_PERICENTER": 233.8301, "MEAN_ANOMALY": 166.8442, "EPHEMERIS_TYPE": 0, "CLASSIFICATION_TYPE": "U", "NORAD_CAT_ID": 37868, "ELEMENT_SET_NO": 999, "REV_AT_EPOCH": 10954, "BSTAR": 0, "MEAN_MOTION_DOT": -1.2e-07, "MEAN_MOTION_DDOT": 0}, "tle": {"line1": "1 37868U 11064B   25335.23245073 -.00000012  00000+0  00000+0 0  9990", "line2": "2 37868  65.1625  79.6383 0020984 233.8301 166.8442  2.13102690109542"}}, "geometry": {"type": "Point", "coordinates": [-89.66104689357984, -22.204075933276325]}}, {"type": "Feature", "properties": {"norad_id": 37869, "name": "COSMOS 2475 (743)", "group": "glo-ops", "lat": 17.72898010447194, "lon": -109.01496946441591, "alt_km": 19125.392147706916, "timestamp": "2025-12-06T14:35:37.386946+00:00", "meta": {"OBJECT_NAME": "COSMOS 2475 (743)", "OBJECT_ID": "2011-064C", "EPOCH": "2025-12-02T03:10:18.719904", "MEAN_MOTION": 2.13101359, "ECCENTRICITY": 0.0026048, "INCLINATION": 65.1701, "RA_OF_ASC_NODE": 79.6277, "ARG_OF_PERICENTER": 248.2415, "MEAN_ANOMALY": 78.6584, "EPHEMERIS_TYPE": 0, "CLASSIFICATION_TYPE": "U", "NORAD_CAT_ID": 37869, "ELEMENT_SET_NO": 999, "REV_AT_EPOCH": 10956, "BSTAR": 0, "MEAN_MOTION_DOT": -1.8e-07, "MEAN_MOTION_DDOT": 0}, "tle": {"line1": "1 37869U 11064C   25336.13216111 -.00000018  00000+0  00000+0 0  9998", "line2": "2 37869  65.1701  79.6277 0026048 248.2415  78.6584  2.13101359109563"}}, "geometry": {"type": "Point", "coordinates": [-109.01496946441591, 17.72898010447194]}}]}